{
  "type": "FeatureCollection",
  "features": [
    {
      "type": "Feature",
      "properties": {
        "norad_id": 66740,
        "name": "TRANSPORTER-15CC",
        "group": "last-30-days",
        "lat": -74.67539331168418,
        "lon": -135.86313761543852,
        "alt_km": 518.6741178383463,
        "timestamp": "2025-12-27T02:10:14.907173+00:00",
        "meta_object_name": "TRANSPORTER-15CC",
        "meta_object_id": "2025-276CC",
        "meta_epoch": "2025-12-26T17:07:56.881920",
        "meta_mean_motion": 15.17770077,
        "meta_eccentricity": 0.0002343,
        "meta_inclination": 97.4404,
        "meta_ra_of_asc_node": 72.2499,
        "meta_arg_of_pericenter": 217.2116,
        "meta_mean_anomaly": 142.8955,
        "meta_ephemeris_type": 0,
        "meta_classification_type": "U",
        "meta_norad_cat_id": 66740,
        "meta_element_set_no": 999,
        "meta_rev_at_epoch": 424,
        "meta_bstar": 0.00039428,
        "meta_mean_motion_dot": 7.9e-05,
        "meta_mean_motion_ddot": 0,
        "tle_line1": "1 66740U 25276CC  25360.71385280  .00007900  00000+0  39428-3 0  9999",
        "tle_line2": "2 66740  97.4404  72.2499 0002343 217.2116 142.8955 15.17770077  4244"
      },
      "geometry": {
        "type": "Point",
        "coordinates": [
          -135.86313761543852,
          -74.67539331168418
        ]
      }
    },
    {
      "type": "Feature",
      "properties": {
        "norad_id": 66741,
        "name": "TRANSPORTER-15CD",
        "group": "last-30-days",
        "lat": -68.45930578786566,
        "lon": -126.72489607448236,
        "alt_km": 519.5815079744407,
        "timestamp": "2025-12-27T02:10:14.907185+00:00",
        "meta_object_name": "TRANSPORTER-15CD",
        "meta_object_id": "2025-276CD",
        "meta_epoch": "2025-12-26T18:44:39.517152",
        "meta_mean_motion": 15.17656441,
        "meta_eccentricity": 0.0001268,
        "meta_inclination": 97.4402,
        "meta_ra_of_asc_node": 72.3045,
        "meta_arg_of_pericenter": 206.3208,
        "meta_mean_anomaly": 153.7962,
        "meta_ephemeris_type": 0,
        "meta_classification_type": "U",
        "meta_norad_cat_id": 66741,
        "meta_element_set_no": 999,
        "meta_rev_at_epoch": 425,
        "meta_bstar": 0.0001982,
        "meta_mean_motion_dot": 3.923e-05,
        "meta_mean_motion_ddot": 0,
        "tle_line1": "1 66741U 25276CD  25360.78101293  .00003923  00000+0  19820-3 0  9992",
        "tle_line2": "2 66741  97.4402  72.3045 0001268 206.3208 153.7962 15.17656441  4255"
      },
      "geometry": {
        "type": "Point",
        "coordinates": [
          -126.72489607448236,
          -68.45930578786566
        ]
      }
    },
    {
      "type": "Feature",
      "properties": {
        "norad_id": 66742,
        "name": "TRANSPORTER-15CE",
        "group": "last-30-days",
        "lat": -77.01169352712407,
        "lon": -141.89818701211513,
        "alt_km": 519.8850577537978,
        "timestamp": "2025-12-27T02:10:14.907198+00:00",
        "meta_object_name": "TRANSPORTER-15CE",
        "meta_object_id": "2025-276CE",
        "meta_epoch": "2025-12-26T17:07:12.906048",
        "meta_mean_motion": 15.17743167,
        "meta_eccentricity": 0.0002009,
        "meta_inclination": 97.4396,
        "meta_ra_of_asc_node": 72.2396,
        "meta_arg_of_pericenter": 175.2913,
        "meta_mean_anomaly": 184.834,
        "meta_ephemeris_type": 0,
        "meta_classification_type": "U",
        "meta_norad_cat_id": 66742,
        "meta_element_set_no": 999,
        "meta_rev_at_epoch": 424,
        "meta_bstar": 0.00031415,
        "meta_mean_motion_dot": 6.275e-05,
        "meta_mean_motion_ddot": 0,
        "tle_line1": "1 66742U 25276CE  25360.71334382  .00006275  00000+0  31415-3 0  9990",
        "tle_line2": "2 66742  97.4396  72.2396 0002009 175.2913 184.8340 15.17743167  4243"
      },
      "geometry": {
        "type": "Point",
        "coordinates": [
          -141.89818701211513,
          -77.01169352712407
        ]
      }
    },
    {
      "type": "Feature",
      "properties": {
        "norad_id": 66743,
        "name": "TRANSPORTER-15CF",
        "group": "last-30-days",
        "lat": 35.345224513677294,
        "lon": -102.12335349795855,
        "alt_km": 547.6188725620659,
        "timestamp": "2025-12-27T02:10:14.907208+00:00",
        "meta_object_name": "TRANSPORTER-15CF",
        "meta_object_id": "2025-276CF",
        "meta_epoch": "2025-12-25T04:50:49.043328",
        "meta_mean_motion": 15.11484429,
        "meta_eccentricity": 0.0034918,
        "meta_inclination": 97.4397,
        "meta_ra_of_asc_node": 70.743,
        "meta_arg_of_pericenter": 109.5161,
        "meta_mean_anomaly": 250.9846,
        "meta_ephemeris_type": 0,
        "meta_classification_type": "U",
        "meta_norad_cat_id": 66743,
        "meta_element_set_no": 999,
        "meta_rev_at_epoch": 401,
        "meta_bstar": -0.23724,
        "meta_mean_motion_dot": -0.03580195,
        "meta_mean_motion_ddot": 0,
        "tle_line1": "1 66743U 25276CF  25359.20195652 -.03580195  00000+0 -23724+0 0  9991",
        "tle_line2": "2 66743  97.4397  70.7430 0034918 109.5161 250.9846 15.11484429  4014"
      },
      "geometry": {
        "type": "Point",
        "coordinates": [
          -102.12335349795855,
          35.345224513677294
        ]
      }
    },
    {
      "type": "Feature",
      "properties": {
        "norad_id": 66744,
        "name": "TRANSPORTER-15CG",
        "group": "last-30-days",
        "lat": -82.20836710093474,
        "lon": -178.8859081490638,
        "alt_km": 502.7388341278038,
        "timestamp": "2025-12-27T02:10:14.907218+00:00",
        "meta_object_name": "TRANSPORTER-15CG",
        "meta_object_id": "2025-276CG",
        "meta_epoch": "2025-12-25T03:09:31.796064",
        "meta_mean_motion": 15.19341003,
        "meta_eccentricity": 0.00243198,
        "meta_inclination": 97.3868,
        "meta_ra_of_asc_node": 70.659,
        "meta_arg_of_pericenter": 231.5349,
        "meta_mean_anomaly": 128.3704,
        "meta_ephemeris_type": 0,
        "meta_classification_type": "U",
        "meta_norad_cat_id": 66744,
        "meta_element_set_no": 999,
        "meta_rev_at_epoch": 400,
        "meta_bstar": 0.00064815362,
        "meta_mean_motion_dot": 0.00013749,
        "meta_mean_motion_ddot": 0,
        "tle_line1": "1 66744U 25276CG  25359.13161801  .00013749  00000+0  64815-3 0  9994",
        "tle_line2": "2 66744  97.3868  70.6590 0024319 231.5349 128.3704 15.19341003  4009"
      },
      "geometry": {
        "type": "Point",
        "coordinates": [
          -178.8859081490638,
          -82.20836710093474
        ]
      }
    },
    {
      "type": "Feature",
      "properties": {
        "norad_id": 66745,
        "name": "TRANSPORTER-15CH",
        "group": "last-30-days",
        "lat": -52.70053630077257,
        "lon": -117.2755481832796,
        "alt_km": 520.0175007418948,
        "timestamp": "2025-12-27T02:10:14.907228+00:00",
        "meta_object_name": "TRANSPORTER-15CH",
        "meta_object_id": "2025-276CH",
        "meta_epoch": "2025-12-26T18:48:55.234368",
        "meta_mean_motion": 15.17417975,
        "meta_eccentricity": 0.000138,
        "meta_inclination": 97.4404,
        "meta_ra_of_asc_node": 72.3015,
        "meta_arg_of_pericenter": 187.0481,
        "meta_mean_anomaly": 173.0734,
        "meta_ephemeris_type": 0,
        "meta_classification_type": "U",
        "meta_norad_cat_id": 66745,
        "meta_element_set_no": 999,
        "meta_rev_at_epoch": 425,
        "meta_bstar": 0.00014283,
        "meta_mean_motion_dot": 2.789e-05,
        "meta_mean_motion_ddot": 0,
        "tle_line1": "1 66745U 25276CH  25360.78397262  .00002789  00000+0  14283-3 0  9996",
        "tle_line2": "2 66745  97.4404  72.3015 0001380 187.0481 173.0734 15.17417975  4250"
      },
      "geometry": {
        "type": "Point",
        "coordinates": [
          -117.2755481832796,
          -52.70053630077257
        ]
      }
    },
    {
      "type": "Feature",
      "properties": {
        "norad_id": 66746,
        "name": "TRANSPORTER-15CJ",
        "group": "last-30-days",
        "lat": -76.28012015099925,
        "lon": -139.44806651597005,
        "alt_km": 511.28474228192044,
        "timestamp": "2025-12-27T02:10:14.907238+00:00",
        "meta_object_name": "TRANSPORTER-15CJ",
        "meta_object_id": "2025-276CJ",
        "meta_epoch": "2025-12-26T17:08:06.232128",
        "meta_mean_motion": 15.19483124,
        "meta_eccentricity": 0.0013501,
        "meta_inclination": 97.383,
        "meta_ra_of_asc_node": 72.2643,
        "meta_arg_of_pericenter": 191.2196,
        "meta_mean_anomaly": 168.874,
        "meta_ephemeris_type": 0,
        "meta_classification_type": "U",
        "meta_norad_cat_id": 66746,
        "meta_element_set_no": 999,
        "meta_rev_at_epoch": 424,
        "meta_bstar": 0.00084252,
        "meta_mean_motion_dot": 0.00017881,
        "meta_mean_motion_ddot": 0,
        "tle_line1": "1 66746U 25276CJ  25360.71396102  .00017881  00000+0  84252-3 0  9994",
        "tle_line2": "2 66746  97.3830  72.2643 0013501 191.2196 168.8740 15.19483124  4246"
      },
      "geometry": {
        "type": "Point",
        "coordinates": [
          -139.44806651597005,
          -76.28012015099925
        ]
      }
    }
  ]
}